STARLINK-36816          
1 67891U 26035N   26065.58334491 -.01404053  58814-3 -34751-2 0  9993
2 67891  97.2714 357.7255 0001428  89.4792  60.1846 15.96007205  3150
STARLINK-36813          
1 67892U 26035P   26065.58334491 -.01229292  45778-3 -31114-2 0  9999
2 67892  97.2704 357.7136 0001219  83.9077  37.9044 15.95565189  3253
STARLINK-36803          
1 67893U 26035Q   26065.58334491 -.01200569  43668-3 -30915-2 0  9990
2 67893  97.2721 357.7034 0001224  92.4133   0.3714 15.95238693  3259
STARLINK-36846          
1 67894U 26035R   26065.58334491 -.01209478  44312-3 -30994-2 0  9993
2 67894  97.2718 357.7076 0001389  97.5617   5.6389 15.95330418  3251
STARLINK-36866          
1 67895U 26035S   26065.58334491 -.01214955  44711-3 -31043-2 0  9999
2 67895  97.2717 357.7095 0001297  84.8376  22.9826 15.95386205  3254
STARLINK-36877          
1 67896U 26035T   26065.58334491 -.01203683  43897-3 -30930-2 0  9994
2 67896  97.2719 357.7054 0001224  78.1078  20.0762 15.95278698  3251
STARLINK-36870          
1 67897U 26035U   26065.58334491 -.01223630  45328-3 -31179-2 0  9996
2 67897  97.2714 357.7112 0001236  87.6115  25.3988 15.95439243  3255
STARLINK-36810          
1 67898U 26035V   26065.58334491 -.01230351  45821-3 -31243-2 0  9995
2 67898  97.2713 357.7128 0001247  80.3575  36.9172 15.95504011  3253
STARLINK-36878          
1 67899U 26035W   26065.58334491 -.01228466  45754-3 -30978-2 0  9999
2 67899  97.2711 357.7163 0001275  90.9061  34.8533 15.95634205  3256
STARLINK-36361          
1 67900U 26035X   26065.58334491 -.01233959  46166-3 -31006-2 0  9996
2 67900  97.2712 357.7183 0001295  91.9263  38.4180 15.95701641  3256
STARLINK-36336          
1 67901U 26035Y   26065.58334491 -.01328409  53048-3 -32979-2 0  9999
2 67901  97.2720 357.7248 0001311  87.1982  57.1114 15.95939982  3304
STARLINK-36876          
1 67902U 26035Z   26065.58334491 -.01233706  46183-3 -30879-2 0  9994
2 67902  97.2718 357.7211 0001310  95.6334  38.8126 15.95774192  3259
STARLINK-36257          
1 67903U 26035AA  26065.58334491 -.01236917  46441-3 -30842-2 0  9999
2 67903  97.2716 357.7219 0001290  85.5653  53.1674 15.95845614  3307
STARLINK-36814          
1 67904U 26036A   26065.58334491  .00062694  00000+0  29848-3 0  9999
2 67904  42.9993 268.8473 0002484 258.1795 262.3932 15.81987450  3140
STARLINK-36729          
1 67905U 26036B   26065.58334491  .00215214  00000+0  10058-2 0  9990
2 67905  42.9995 268.8356 0001830 277.9182 247.0054 15.81877630  3149
STARLINK-36763          
1 67906U 26036C   26065.58334491  .00107508  00000+0  50794-3 0  9999
2 67906  42.9996 268.8250 0002112 248.7632 280.3603 15.81965767  3143
