[{"OBJECT_NAME":"STARLINK-36816","OBJECT_ID":"2026-035N","EPOCH":"2026-03-06T14:00:01.000224","MEAN_MOTION":15.96007205,"ECCENTRICITY":0.00014287,"INCLINATION":97.2714,"RA_OF_ASC_NODE":357.7255,"ARG_OF_PERICENTER":89.4792,"MEAN_ANOMALY":60.1846,"EPHEMERIS_TYPE":0,"CLASSIFICATION_TYPE":"U","NORAD_CAT_ID":67891,"ELEMENT_SET_NO":999,"REV_AT_EPOCH":315,"BSTAR":-0.003475085,"MEAN_MOTION_DOT":-0.01404053,"MEAN_MOTION_DDOT":0.0005881408},{"OBJECT_NAME":"STARLINK-36813","OBJECT_ID":"2026-035P","EPOCH":"2026-03-06T14:00:01.000224","MEAN_MOTION":15.95565189,"ECCENTRICITY":0.00012197,"INCLINATION":97.2704,"RA_OF_ASC_NODE":357.7136,"ARG_OF_PERICENTER":83.9077,"MEAN_ANOMALY":37.9044,"EPHEMERIS_TYPE":0,"CLASSIFICATION_TYPE":"U","NORAD_CAT_ID":67892,"ELEMENT_SET_NO":999,"REV_AT_EPOCH":325,"BSTAR":-0.0031114455,"MEAN_MOTION_DOT":-0.01229292,"MEAN_MOTION_DDOT":0.00045777627},{"OBJECT_NAME":"STARLINK-36803","OBJECT_ID":"2026-035Q","EPOCH":"2026-03-06T14:00:01.000224","MEAN_MOTION":15.95238693,"ECCENTRICITY":0.0001224,"INCLINATION":97.2721,"RA_OF_ASC_NODE":357.7034,"ARG_OF_PERICENTER":92.4133,"MEAN_ANOMALY":0.3714,"EPHEMERIS_TYPE":0,"CLASSIFICATION_TYPE":"U","NORAD_CAT_ID":67893,"ELEMENT_SET_NO":999,"REV_AT_EPOCH":325,"BSTAR":-0.0030915214,"MEAN_MOTION_DOT":-0.01200569,"MEAN_MOTION_DDOT":0.00043668207},{"OBJECT_NAME":"STARLINK-36846","OBJECT_ID":"2026-035R","EPOCH":"2026-03-06T14:00:01.000224","MEAN_MOTION":15.95330418,"ECCENTRICITY":0.00013899,"INCLINATION":97.2718,"RA_OF_ASC_NODE":357.7076,"ARG_OF_PERICENTER":97.5617,"MEAN_ANOMALY":5.6389,"EPHEMERIS_TYPE":0,"CLASSIFICATION_TYPE":"U","NORAD_CAT_ID":67894,"ELEMENT_SET_NO":999,"REV_AT_EPOCH":325,"BSTAR":-0.0030994046,"MEAN_MOTION_DOT":-0.01209478,"MEAN_MOTION_DDOT":0.0004431213},{"OBJECT_NAME":"STARLINK-36866","OBJECT_ID":"2026-035S","EPOCH":"2026-03-06T14:00:01.000224","MEAN_MOTION":15.95386205,"ECCENTRICITY":0.00012977,"INCLINATION":97.2717,"RA_OF_ASC_NODE":357.7095,"ARG_OF_PERICENTER":84.8376,"MEAN_ANOMALY":22.9826,"EPHEMERIS_TYPE":0,"CLASSIFICATION_TYPE":"U","NORAD_CAT_ID":67895,"ELEMENT_SET_NO":999,"REV_AT_EPOCH":325,"BSTAR":-0.0031043486,"MEAN_MOTION_DOT":-0.01214955,"MEAN_MOTION_DDOT":0.00044710629},{"OBJECT_NAME":"STARLINK-36877","OBJECT_ID":"2026-035T","EPOCH":"2026-03-06T14:00:01.000224","MEAN_MOTION":15.95278698,"ECCENTRICITY":0.00012249,"INCLINATION":97.2719,"RA_OF_ASC_NODE":357.7054,"ARG_OF_PERICENTER":78.1078,"MEAN_ANOMALY":20.0762,"EPHEMERIS_TYPE":0,"CLASSIFICATION_TYPE":"U","NORAD_CAT_ID":67896,"ELEMENT_SET_NO":999,"REV_AT_EPOCH":325,"BSTAR":-0.0030930067,"MEAN_MOTION_DOT":-0.01203683,"MEAN_MOTION_DDOT":0.00043896767},{"OBJECT_NAME":"STARLINK-36870","OBJECT_ID":"2026-035U","EPOCH":"2026-03-06T14:00:01.000224","MEAN_MOTION":15.95439243,"ECCENTRICITY":0.00012369,"INCLINATION":97.2714,"RA_OF_ASC_NODE":357.7112,"ARG_OF_PERICENTER":87.6115,"MEAN_ANOMALY":25.3988,"EPHEMERIS_TYPE":0,"CLASSIFICATION_TYPE":"U","NORAD_CAT_ID":67897,"ELEMENT_SET_NO":999,"REV_AT_EPOCH":325,"BSTAR":-0.0031179022,"MEAN_MOTION_DOT":-0.0122363,"MEAN_MOTION_DDOT":0.00045328287},{"OBJECT_NAME":"STARLINK-36810","OBJECT_ID":"2026-035V","EPOCH":"2026-03-06T14:00:01.000224","MEAN_MOTION":15.95504011,"ECCENTRICITY":0.00012477,"INCLINATION":97.2713,"RA_OF_ASC_NODE":357.7128,"ARG_OF_PERICENTER":80.3575,"MEAN_ANOMALY":36.9172,"EPHEMERIS_TYPE":0,"CLASSIFICATION_TYPE":"U","NORAD_CAT_ID":67898,"ELEMENT_SET_NO":999,"REV_AT_EPOCH":325,"BSTAR":-0.0031243475,"MEAN_MOTION_DOT":-0.01230351,"MEAN_MOTION_DDOT":0.00045821323},{"OBJECT_NAME":"STARLINK-36878","OBJECT_ID":"2026-035W","EPOCH":"2026-03-06T14:00:01.000224","MEAN_MOTION":15.95634205,"ECCENTRICITY":0.00012751,"INCLINATION":97.2711,"RA_OF_ASC_NODE":357.7163,"ARG_OF_PERICENTER":90.9061,"MEAN_ANOMALY":34.8533,"EPHEMERIS_TYPE":0,"CLASSIFICATION_TYPE":"U","NORAD_CAT_ID":67899,"ELEMENT_SET_NO":999,"REV_AT_EPOCH":325,"BSTAR":-0.0030978451,"MEAN_MOTION_DOT":-0.01228466,"MEAN_MOTION_DDOT":0.00045753773},{"OBJECT_NAME":"STARLINK-36361","OBJECT_ID":"2026-035X","EPOCH":"2026-03-06T14:00:01.000224","MEAN_MOTION":15.95701641,"ECCENTRICITY":0.00012958,"INCLINATION":97.2712,"RA_OF_ASC_NODE":357.7183,"ARG_OF_PERICENTER":91.9263,"MEAN_ANOMALY":38.418,"EPHEMERIS_TYPE":0,"CLASSIFICATION_TYPE":"U","NORAD_CAT_ID":67900,"ELEMENT_SET_NO":999,"REV_AT_EPOCH":325,"BSTAR":-0.0031005942,"MEAN_MOTION_DOT":-0.01233959,"MEAN_MOTION_DDOT":0.00046165671},{"OBJECT_NAME":"STARLINK-36336","OBJECT_ID":"2026-035Y","EPOCH":"2026-03-06T14:00:01.000224","MEAN_MOTION":15.95939982,"ECCENTRICITY":0.00013117,"INCLINATION":97.272,"RA_OF_ASC_NODE":357.7248,"ARG_OF_PERICENTER":87.1982,"MEAN_ANOMALY":57.1114,"EPHEMERIS_TYPE":0,"CLASSIFICATION_TYPE":"U","NORAD_CAT_ID":67901,"ELEMENT_SET_NO":999,"REV_AT_EPOCH":330,"BSTAR":-0.0032978935,"MEAN_MOTION_DOT":-0.01328409,"MEAN_MOTION_DDOT":0.00053047929},{"OBJECT_NAME":"STARLINK-36876","OBJECT_ID":"2026-035Z","EPOCH":"2026-03-06T14:00:01.000224","MEAN_MOTION":15.95774192,"ECCENTRICITY":0.000131,"INCLINATION":97.2718,"RA_OF_ASC_NODE":357.7211,"ARG_OF_PERICENTER":95.6334,"MEAN_ANOMALY":38.8126,"EPHEMERIS_TYPE":0,"CLASSIFICATION_TYPE":"U","NORAD_CAT_ID":67902,"ELEMENT_SET_NO":999,"REV_AT_EPOCH":325,"BSTAR":-0.0030879075,"MEAN_MOTION_DOT":-0.01233706,"MEAN_MOTION_DDOT":0.00046183331},{"OBJECT_NAME":"STARLINK-36257","OBJECT_ID":"2026-035AA","EPOCH":"2026-03-06T14:00:01.000224","MEAN_MOTION":15.95845614,"ECCENTRICITY":0.00012903,"INCLINATION":97.2716,"RA_OF_ASC_NODE":357.7219,"ARG_OF_PERICENTER":85.5653,"MEAN_ANOMALY":53.1674,"EPHEMERIS_TYPE":0,"CLASSIFICATION_TYPE":"U","NORAD_CAT_ID":67903,"ELEMENT_SET_NO":999,"REV_AT_EPOCH":330,"BSTAR":-0.0030841834,"MEAN_MOTION_DOT":-0.01236917,"MEAN_MOTION_DDOT":0.00046441172},{"OBJECT_NAME":"STARLINK-36814","OBJECT_ID":"2026-036A","EPOCH":"2026-03-06T14:00:01.000224","MEAN_MOTION":15.8198745,"ECCENTRICITY":0.00024844,"INCLINATION":42.9993,"RA_OF_ASC_NODE":268.8473,"ARG_OF_PERICENTER":258.1795,"MEAN_ANOMALY":262.3932,"EPHEMERIS_TYPE":0,"CLASSIFICATION_TYPE":"U","NORAD_CAT_ID":67904,"ELEMENT_SET_NO":999,"REV_AT_EPOCH":314,"BSTAR":0.00029847989,"MEAN_MOTION_DOT":0.00062694,"MEAN_MOTION_DDOT":0},{"OBJECT_NAME":"STARLINK-36729","OBJECT_ID":"2026-036B","EPOCH":"2026-03-06T14:00:01.000224","MEAN_MOTION":15.8187763,"ECCENTRICITY":0.00018302,"INCLINATION":42.9995,"RA_OF_ASC_NODE":268.8356,"ARG_OF_PERICENTER":277.9182,"MEAN_ANOMALY":247.0054,"EPHEMERIS_TYPE":0,"CLASSIFICATION_TYPE":"U","NORAD_CAT_ID":67905,"ELEMENT_SET_NO":999,"REV_AT_EPOCH":314,"BSTAR":0.0010058454,"MEAN_MOTION_DOT":0.00215214,"MEAN_MOTION_DDOT":0},{"OBJECT_NAME":"STARLINK-36763","OBJECT_ID":"2026-036C","EPOCH":"2026-03-06T14:00:01.000224","MEAN_MOTION":15.81965767,"ECCENTRICITY":0.00021129,"INCLINATION":42.9996,"RA_OF_ASC_NODE":268.825,"ARG_OF_PERICENTER":248.7632,"MEAN_ANOMALY":280.3603,"EPHEMERIS_TYPE":0,"CLASSIFICATION_TYPE":"U","NORAD_CAT_ID":67906,"ELEMENT_SET_NO":999,"REV_AT_EPOCH":314,"BSTAR":0.00050793931,"MEAN_MOTION_DOT":0.00107508,"MEAN_MOTION_DDOT":0}]
